[{"OBJECT_NAME":"FOSSASAT-2E20 (TAT-O)","OBJECT_ID":"2025-009DN","EPOCH":"2026-03-09T17:00:18.734688","MEAN_MOTION":15.2699108,"ECCENTRICITY":0.00021892,"INCLINATION":97.3231,"RA_OF_ASC_NODE":146.2859,"ARG_OF_PERICENTER":347.5575,"MEAN_ANOMALY":12.561,"EPHEMERIS_TYPE":0,"CLASSIFICATION_TYPE":"U","NORAD_CAT_ID":63003,"ELEMENT_SET_NO":999,"REV_AT_EPOCH":12131,"BSTAR":0.00061862572,"MEAN_MOTION_DOT":0.00016337,"MEAN_MOTION_DDOT":0},{"OBJECT_NAME":"STARLINK-35775","OBJECT_ID":"2025-294J","EPOCH":"2026-03-09T23:07:54.185376","MEAN_MOTION":15.27589358,"ECCENTRICITY":9.529e-5,"INCLINATION":43.0036,"RA_OF_ASC_NODE":36.3117,"ARG_OF_PERICENTER":262.1519,"MEAN_ANOMALY":97.9225,"EPHEMERIS_TYPE":0,"CLASSIFICATION_TYPE":"U","NORAD_CAT_ID":67038,"ELEMENT_SET_NO":999,"REV_AT_EPOCH":1485,"BSTAR":0.00096208644,"MEAN_MOTION_DOT":0.00026314,"MEAN_MOTION_DDOT":0}]
